CUTE-1 (CO-55)          
1 27844U 03031E   21177.76220769  .00000043  00000-0  39105-4 0  9998
2 27844  98.6791 185.8335 0010926  56.2161 304.0056 14.22316418933341
CUBESAT XI-IV (CO-57)   
1 27848U 03031J   21177.75816734  .00000036  00000-0  35936-4 0  9994
2 27848  98.6847 186.3934 0010936  68.2141 292.0199 14.21892650933160
CUBESAT XI-V            
1 28895U 05043F   21177.78993890  .00000155  00000-0  38502-4 0  9998
2 28895  98.0604 310.8249 0016913 176.4301 183.7026 14.63924743835602
CUTE-1.7+APD II (CO-65) 
1 32785U 08021C   21177.40602061  .00000305  00000-0  38276-4 0  9991
2 32785  97.6113 155.9013 0012404 340.7618  19.3129 14.88736847713505
AAUSAT-II               
1 32788U 08021F   21177.52134407  .00000919  00000-0  87636-4 0  9996
2 32788  97.5043 171.7980 0010230 234.8491 125.1773 14.95610620715214
DELFI-C3 (DO-64)        
1 32789U 08021G   21177.36692728  .00002165  00000-0  14035-3 0  9991
2 32789  97.3751 212.3895 0013472 109.7728 250.4955 15.09043020718172
SEEDS II (CO-66)        
1 32791U 08021J   21177.75503550  .00000472  00000-0  52562-4 0  9998
2 32791  97.5711 162.1399 0011730 299.4360  60.5688 14.91427224714247
SWISSCUBE               
1 35932U 09051B   21177.56035877  .00000143  00000-0  43140-4 0  9990
2 35932  98.6021  17.8671 0008726  63.8964 296.3130 14.56545570624322
BEESAT-1                
1 35933U 09051C   21177.80040816  .00000117  00000-0  37312-4 0  9992
2 35933  98.5985  19.9299 0006988  74.9730 285.2240 14.56602131624474
ITUPSAT1                
1 35935U 09051E   21177.53520186  .00000102  00000-0  34549-4 0  9990
2 35935  98.6087  19.7928 0009317  76.0579 284.1653 14.55733904624096
TISAT 1                 
1 36799U 10035E   21177.50648464  .00000303  00000-0  36177-4 0  9992
2 36799  98.2055   8.6900 0012068 177.4498 182.6783 14.91758965594687
M-CUBED & EXP-1 PRIME   
1 37855U 11061F   21177.78023488  .00003156  00000-0  15721-3 0  9999
2 37855 101.7126 106.0131 0166942  42.9916 318.4203 15.07739038528053
AEROCUBE 4.5A           
1 38767U 12048K   21177.29910633  .00001062  00000-0  96213-4 0  9991
2 38767  64.6646 146.9739 0154037   3.9246 356.3032 14.92815638 97597
AEROCUBE 4.5B           
1 38768U 12048L   21177.23715402  .00001462  00000-0  11683-3 0  9994
2 38768  64.6662 108.9118 0145899 358.4597   1.6046 14.96706682 97809
STRAND-1                
1 39090U 13009E   21177.81843346  .00000008  00000-0  17975-4 0  9990
2 39090  98.4272  19.8002 0007962 248.5445 111.4892 14.35174635436403
SOMP                    
1 39134U 13015E   21177.24576826  .00002270  00000-0  10582-3 0  9998
2 39134  64.8627 143.8719 0009396 316.7714  43.2676 15.22645536452552
BEESAT-3                
1 39135U 13015F   21177.39542972  .00001541  00000-0  81756-4 0  9992
2 39135  64.8646 172.7214 0004796 345.8277  14.2714 15.19423960451978
BEESAT-2                
1 39136U 13015G   21177.72630091  .00001193  00000-0  66417-4 0  9990
2 39136  64.8735 178.0808 0023026 244.4299 115.4448 15.18784698452326
NEE-01 PEGASO           
1 39151U 13018B   21177.75290478  .00000186  00000-0  31375-4 0  9990
2 39151  97.9804 280.1537 0016166 332.2799  27.7550 14.80360640441051
ESTCUBE 1               
1 39161U 13021C   21169.16363120  .00000205  00000-0  39931-4 0  9994
2 39161  97.9375 250.3372 0010181 143.0626 217.1285 14.72487463435854
POPACS 1                
1 39268U 13055D   21177.56771950  .00007124  00000-0  19052-3 0  9994
2 39268  80.9999 259.6429 0602852 188.1104 171.0002 14.42747977401870
POPACS 2                
1 39269U 13055E   21177.33081650  .00001445  00000-0  40897-4 0  9993
2 39269  81.0139 306.9801 0667180 310.9745  43.5501 14.27861888399290
POPACS 3                
1 39270U 13055F   21177.41107571  .00001428  00000-0  42764-4 0  9991
2 39270  81.0156 333.9543 0703641  27.8204 335.8800 14.18502083378117
ZACUBE-1 (TSHEPISOSAT)  
1 39417U 13066B   21177.43289811  .00000253  00000-0  37668-4 0  9998
2 39417  97.5929 161.2949 0059756 130.6560 229.9870 14.81527736410402
WNISAT-1                
1 39423U 13066H   21176.72501326  .00000012  00000-0  12077-4 0  9994
2 39423  97.7934  78.6445 0175262 171.0009 189.4286 14.53226181402633
TRITON-1                
1 39427U 13066M   21177.78901877  .00000273  00000-0  51460-4 0  9998
2 39427  97.7755 125.1151 0112433 321.9068  37.4227 14.68251697406774
DELFI-N3XT              
1 39428U 13066N   21177.41616024  .00000509  00000-0  88110-4 0  9990
2 39428  97.7800 123.2308 0119270 336.1335  23.4368 14.68023829406281
GOMX-1                  
1 39430U 13066Q   21177.10162249  .00000193  00000-0  43362-4 0  9993
2 39430  97.8137  99.6755 0151951  87.5933 274.2625 14.59620812404301
CUBEBUG-2 (LO-74)       
1 39440U 13066AA  21177.80582887  .00000216  00000-0  36914-4 0  9996
2 39440  97.6765 146.6896 0079038 204.2320 155.5165 14.76256283409007
NEE-02 KRYSAOR          
1 39441U 13066AB  21177.80653842  .00000126  00000-0  25026-4 0  9999
2 39441  97.6863 144.0283 0080459 215.4890 144.0952 14.75192473408751
FUNCUBE-1 (AO-73)       
1 39444U 13066AE  21177.54656373  .00000368  00000-0  50838-4 0  9992
2 39444  97.5834 163.7686 0058986 120.7675 239.9365 14.82438116408785
UWE-3                   
1 39446U 13066AG  21177.49187950  .00000235  00000-0  37479-4 0  9997
2 39446  97.6371 153.3130 0069859 168.5677 191.7141 14.78794427407844
AEROCUBE 5A             
1 39465U 13072D   21177.81359896  .00005099  00000-0  41407-3 0  9999
2 39465 120.4918  83.7102 0241280 269.7625  87.5782 14.81589927 96735
AEROCUBE 5B             
1 39466U 13072E   21177.56309349  .00008136  00000-0  53210-3 0  9990
2 39466 120.4670 140.8796 0206641 283.1271  74.6806 14.93035729 97299
BRITE-CA1 (TORONTO)     
1 40020U 14033L   21177.74594695  .00000083  00000-0  22643-4 0  9996
2 40020  97.7432 350.7327 0086283 318.9716  40.5020 14.66744982375624
DUCHIFAT-1              
1 40021U 14033M   21177.79390793  .00000578  00000-0  63774-4 0  9994
2 40021  97.9729 118.0852 0013804 128.8898 231.3553 14.91360135381677
NANOSATC-BR1            
1 40024U 14033Q   21177.36236702  .00000533  00000-0  60480-4 0  9991
2 40024  97.9518 112.6645 0013035 135.1715 225.0557 14.90455862380923
QB50P1                  
1 40025U 14033R   21177.55567032  .00000411  00000-0  49174-4 0  9998
2 40025  97.9333 108.2663 0013109 142.8921 217.3205 14.89456317380777
QB50P2                  
1 40032U 14033Y   21177.79335596  .00000326  00000-0  40621-4 0  9993
2 40032  97.9170 105.0443 0012617 139.2653 220.9509 14.88963709381203
PERSEUS-M2              
1 40037U 14033AD  21177.76697921  .00000134  00000-0  21299-4 0  9995
2 40037  97.8903  97.3376 0014764 159.3183 200.8633 14.86680086380773
PERSEUS-M1              
1 40039U 14033AF  21177.73738558  .00000131  00000-0  21064-4 0  9993
2 40039  97.8840  95.6355 0014635 158.0464 202.1382 14.86299890380672
POLYITAN-1              
1 40042U 14033AJ  21177.81019208  .00000457  00000-0  54157-4 0  9990
2 40042  97.9427 109.3365 0015499 134.4886 225.7600 14.89266985381214
TIGRISAT                
1 40043U 14033AK  21177.54958026  .00000187  00000-0  34684-4 0  9994
2 40043  97.6721  20.8827 0058567 227.8891 131.7332 14.74544290377175
AEROCUBE 6A             
1 40045U 14033AM  21177.56874875  .00000231  00000-0  40055-4 0  9996
2 40045  97.6949  28.2091 0056485 217.3423 142.3856 14.75823175377280
AEROCUBE 6B             
1 40046U 14033AN  21177.50843275  .00000383  00000-0  61676-4 0  9991
2 40046  97.6845  26.9767 0055711 216.3458 143.3964 14.75867669377275
UKUBE-1                 
1 40074U 14037F   21177.81516248  .00000213  00000-0  32418-4 0  9991
2 40074  98.4297  34.1105 0004706  11.9787 348.1538 14.84566473377298
BRITE-PL2 (HEWELIUSZ)   
1 40119U 14049B   21177.52700546  .00000155  00000-0  24679-4 0  9993
2 40119  97.8885 271.9157 0016550 330.6825  29.3459 14.84663938371193
FIREBIRD 4              
1 40378U 15003C   21177.33567357  .00005232  00000-0  18965-3 0  9992
2 40378  99.1017 320.5683 0118203 142.6245 218.3283 15.22560835354148
GRIFEX                  
1 40379U 15003D   21177.63071068  .00003371  00000-0  13760-3 0  9995
2 40379  99.0973 310.1672 0128468 174.2556 186.0183 15.18110140353584
CP10 (EXOCUBE)          
1 40380U 15003E   21177.37756532  .00002820  00000-0  12242-3 0  9996
2 40380  99.0982 304.2562 0133760 194.1440 165.6028 15.15764583353160
AEROCUBE 8A             
1 40659U 15025J   21177.54001655  .00065598  12074-4  31105-3 0  9995
2 40659  55.0060 338.8576 0056657  80.5626 280.1819 15.80857575102168
AEROCUBE 8B             
1 40660U 15025K   21177.74690174  .00072294  12443-4  32064-3 0  9995
2 40660  55.0020 334.0108 0053918  83.5437 277.1746 15.82368042102236
TIANWANG 1A (TW-1A)     
1 40928U 15051D   21177.72763998  .00004946  00000-0  10317-3 0  9992
2 40928  97.0757 202.4070 0007324 255.5429 216.0096 15.45981454323124
EXACTVIEW 9             
1 40936U 15052G   21177.01292667  .00001011  00000-0  52108-4 0  9999
2 40936   6.0029 196.5102 0009696 152.3261 207.5728 14.76710001310478
AEROCUBE 5C             
1 40965U 15058B   21177.37584208  .00000172  00000-0  36991-4 0  9990
2 40965  64.7774  91.0948 0205642 307.8800  50.3858 14.74779007 96445
AEROCUBE 7              
1 40966U 15058C   21177.47695819  .00000235  00000-0  43487-4 0  9991
2 40966  64.7775  88.6967 0204484 307.5114  50.7554 14.75137762 96453
ATHENOXAT 1             
1 41168U 15077C   21177.69138688  .00002339  00000-0  83153-4 0  9998
2 41168  14.9881 193.0903 0010785 304.1255 204.3415 15.15746300306188
GALASSIA                
1 41170U 15077E   21177.38378033  .00002278  00000-0  79459-4 0  9993
2 41170  14.9876 186.0372 0012084 327.6632  32.2948 15.15951506306051
VELOX-II                
1 41171U 15077F   21177.53784376  .00001752  00000-0  59767-4 0  9998
2 41171  14.9907 242.8406 0008464 199.9411 160.0579 15.12583718305634
